EUTELSAT 21B            
1 38992U 12062B   25284.20837222  .00000125  00000+0  00000+0 0  9995
2 38992   0.0764  23.3094 0002679 182.9508 270.3852  1.00271360 47332
EUTELSAT 70B            
1 39020U 12069A   25284.14657861 -.00000048  00000+0  00000+0 0  9992
2 39020   0.0672  12.1816 0004128 188.9686 302.1172  1.00271865 47019
EUTELSAT 117 WEST A     
1 39122U 13012A   25284.22197565 -.00000018  00000+0  00000+0 0  9990
2 39122   0.0576  65.9775 0002833 142.9994 134.2135  1.00272232 45939
EUTELSAT 7B             
1 39163U 13022A   25284.20551221  .00000043  00000+0  00000+0 0  9994
2 39163   0.0705  11.3429 0001522 295.1804 154.5120  1.00270579 45463
EXPRESS-AT1             
1 39612U 14010A   25284.21521892  .00000073  00000+0  00000+0 0  9996
2 39612   0.0167 228.5899 0000290 271.6857  13.2838  1.00271203 42329
EXPRESS-AT2             
1 39613U 14010B   25283.85156772 -.00000285  00000+0  00000+0 0  9993
2 39613   0.0182 226.3781 0000171 244.9646 354.7948  1.00271287 42002
EUTELSAT 3B             
1 39773U 14030A   25284.20473221  .00000015  00000+0  00000+0 0  9993
2 39773   0.0661  16.1096 0004574 181.8703 258.8797  1.00272256 41573
EUTELSAT 115 WEST B     
1 40425U 15010B   25283.89585082 -.00000029  00000+0  00000+0 0  9997
2 40425   0.0184  60.9991 0000311  40.6776 125.6974  1.00272225 38892
